{"type": "FeatureCollection", "features": [ {"type": "Feature", "properties": {"norad_id": 40938, "name": "BEIDOU-3S IGSO-2S (C56)", "group": "gnss", "lat": -25.579108439547106, "lon": 105.02972491964898, "alt_km": 35559.12579260835, "timestamp": "2025-12-16T19:34:24.509440+00:00", "meta": {"OBJECT_NAME": "BEIDOU-3S IGSO-2S (C56)", "OBJECT_ID": "2015-053A", "EPOCH": "2025-12-15T17:16:15.906720", "MEAN_MOTION": 1.00269697, "ECCENTRICITY": 0.00606798, "INCLINATION": 49.506, "RA_OF_ASC_NODE": 260.9696, "ARG_OF_PERICENTER": 188.8642, "MEAN_ANOMALY": 349.819, "EPHEMERIS_TYPE": 0, "CLASSIFICATION_TYPE": "U", "NORAD_CAT_ID": 40938, "ELEMENT_SET_NO": 999, "REV_AT_EPOCH": 3751, "BSTAR": 0, "MEAN_MOTION_DOT": -1.43e-06, "MEAN_MOTION_DDOT": 0}, "tle": {"line1": "1 40938U 15053A   25349.71962855 -.00000143  00000+0  00000+0 0  9991", "line2": "2 40938  49.5060 260.9696 0060679 188.8642 349.8190  1.00269697 37513"}}, "geometry": {"type": "Point", "coordinates": [105.02972491964898, -25.579108439547106]}}, {"type": "Feature", "properties": {"norad_id": 41019, "name": "GPS BIIF-11 (PRN 10)", "group": "gnss", "lat": 10.111805831693252, "lon": 44.55507412150425, "alt_km": 20412.481731746455, "timestamp": "2025-12-16T19:34:24.509455+00:00", "meta": {"OBJECT_NAME": "GPS BIIF-11 (PRN 10)", "OBJECT_ID": "2015-062A", "EPOCH": "2025-12-12T19:26:17.014560", "MEAN_MOTION": 2.00567164, "ECCENTRICITY": 0.01108438, "INCLINATION": 56.8322, "RA_OF_ASC_NODE": 37.9995, "ARG_OF_PERICENTER": 229.9503, "MEAN_ANOMALY": 129.1214, "EPHEMERIS_TYPE": 0, "CLASSIFICATION_TYPE": "U", "NORAD_CAT_ID": 41019, "ELEMENT_SET_NO": 999, "REV_AT_EPOCH": 7409, "BSTAR": 0, "MEAN_MOTION_DOT": -9.6e-07, "MEAN_MOTION_DDOT": 0}, "tle": {"line1": "1 41019U 15062A   25346.80991915 -.00000096  00000+0  00000+0 0  9995", "line2": "2 41019  56.8322  37.9995 0110843 229.9503 129.1214  2.00567164 74093"}}, "geometry": {"type": "Point", "coordinates": [44.55507412150425, 10.111805831693252]}}, {"type": "Feature", "properties": {"norad_id": 41028, "name": "GSAT-15 (GAGAN/PRN 139)", "group": "gnss", "lat": -0.0004909196489715963, "lon": 112.75867148715199, "alt_km": 35791.59630730507, "timestamp": "2025-12-16T19:34:24.509476+00:00", "meta": {"OBJECT_NAME": "GSAT-15 (GAGAN/PRN 139)", "OBJECT_ID": "2015-065A", "EPOCH": "2025-12-15T20:40:46.824384", "MEAN_MOTION": 1.00271163, "ECCENTRICITY": 0.00026943, "INCLINATION": 0.0387, "RA_OF_ASC_NODE": 267.8488, "ARG_OF_PERICENTER": 322.0825, "MEAN_ANOMALY": 258.5221, "EPHEMERIS_TYPE": 0, "CLASSIFICATION_TYPE": "U", "NORAD_CAT_ID": 41028, "ELEMENT_SET_NO": 999, "REV_AT_EPOCH": 3696, "BSTAR": 0, "MEAN_MOTION_DOT": -2.35e-06, "MEAN_MOTION_DDOT": 0}, "tle": {"line1": "1 41028U 15065A   25349.86165306 -.00000235  00000+0  00000+0 0  9999", "line2": "2 41028   0.0387 267.8488 0002694 322.0825 258.5221  1.00271163 36961"}}, "geometry": {"type": "Point", "coordinates": [112.75867148715199, -0.0004909196489715963]}}, {"type": "Feature", "properties": {"norad_id": 41174, "name": "GSAT0209 (GALILEO 12)", "group": "gnss", "lat": 42.30115446606122, "lon": -112.07054145308037, "alt_km": 23222.208383232264, "timestamp": "2025-12-16T19:34:24.509494+00:00", "meta": {"OBJECT_NAME": "GSAT0209 (GALILEO 12)", "OBJECT_ID": "2015-079A", "EPOCH": "2025-12-13T16:16:46.046208", "MEAN_MOTION": 1.70474514, "ECCENTRICITY": 0.00024314, "INCLINATION": 55.7133, "RA_OF_ASC_NODE": 106.3552, "ARG_OF_PERICENTER": 349.5598, "MEAN_ANOMALY": 10.4024, "EPHEMERIS_TYPE": 0, "CLASSIFICATION_TYPE": "U", "NORAD_CAT_ID": 41174, "ELEMENT_SET_NO": 999, "REV_AT_EPOCH": 6161, "BSTAR": 0, "MEAN_MOTION_DOT": -1e-08, "MEAN_MOTION_DDOT": 0}, "tle": {"line1": "1 41174U 15079A   25347.67831072 -.00000001  00000+0  00000+0 0  9994", "line2": "2 41174  55.7133 106.3552 0002431 349.5598  10.4024  1.70474514 61616"}}, "geometry": {"type": "Point", "coordinates": [-112.07054145308037, 42.30115446606122]}}, {"type": "Feature", "properties": {"norad_id": 41175, "name": "GSAT0208 (GALILEO 11)", "group": "gnss", "lat": -8.011976166145747, "lon": 100.74862663922276, "alt_km": 23217.938144311192, "timestamp": "2025-12-16T19:34:24.509509+00:00", "meta": {"OBJECT_NAME": "GSAT0208 (GALILEO 11)", "OBJECT_ID": "2015-079B", "EPOCH": "2025-12-12T17:24:26.771040", "MEAN_MOTION": 1.70474307, "ECCENTRICITY": 0.00018806, "INCLINATION": 55.7111, "RA_OF_ASC_NODE": 106.3784, "ARG_OF_PERICENTER": 358.3144, "MEAN_ANOMALY": 1.6545, "EPHEMERIS_TYPE": 0, "CLASSIFICATION_TYPE": "U", "NORAD_CAT_ID": 41175, "ELEMENT_SET_NO": 999, "REV_AT_EPOCH": 6201, "BSTAR": 0, "MEAN_MOTION_DOT": 4e-08, "MEAN_MOTION_DDOT": 0}, "tle": {"line1": "1 41175U 15079B   25346.72530985  .00000004  00000+0  00000+0 0  9991", "line2": "2 41175  55.7111 106.3784 0001880 358.3144   1.6545  1.70474307 62017"}}, "geometry": {"type": "Point", "coordinates": [100.74862663922276, -8.011976166145747]}}, {"type": "Feature", "properties": {"norad_id": 41241, "name": "IRNSS-1E", "group": "gnss", "lat": 30.318388429716922, "lon": 127.2533969234371, "alt_km": 35827.57042984049, "timestamp": "2025-12-16T19:34:24.509522+00:00", "meta": {"OBJECT_NAME": "IRNSS-1E", "OBJECT_ID": "2016-003A", "EPOCH": "2025-12-12T20:06:57.569184", "MEAN_MOTION": 1.00273817, "ECCENTRICITY": 0.00218004, "INCLINATION": 32.8255, "RA_OF_ASC_NODE": 62.4521, "ARG_OF_PERICENTER": 187.6915, "MEAN_ANOMALY": 245.1684, "EPHEMERIS_TYPE": 0, "CLASSIFICATION_TYPE": "U", "NORAD_CAT_ID": 41241, "ELEMENT_SET_NO": 999, "REV_AT_EPOCH": 3621, "BSTAR": 0, "MEAN_MOTION_DOT": -3.05e-06, "MEAN_MOTION_DDOT": 0}, "tle": {"line1": "1 41241U 16003A   25346.83816631 -.00000305  00000+0  00000+0 0  9995", "line2": "2 41241  32.8255  62.4521 0021800 187.6915 245.1684  1.00273817 36218"}}, "geometry": {"type": "Point", "coordinates": [127.2533969234371, 30.318388429716922]}}, {"type": "Feature", "properties": {"norad_id": 41328, "name": "GPS BIIF-12 (PRN 32)", "group": "gnss", "lat": -37.23288654273569, "lon": 65.1012846994159, "alt_km": 20097.905611972183, "timestamp": "2025-12-16T19:34:24.509536+00:00", "meta": {"OBJECT_NAME": "GPS BIIF-12 (PRN 32)", "OBJECT_ID": "2016-007A", "EPOCH": "2025-12-14T09:19:00.023808", "MEAN_MOTION": 2.00560678, "ECCENTRICITY": 0.00922324, "INCLINATION": 55.4071, "RA_OF_ASC_NODE": 96.7915, "ARG_OF_PERICENTER": 243.6085, "MEAN_ANOMALY": 115.4276, "EPHEMERIS_TYPE": 0, "CLASSIFICATION_TYPE": "U", "NORAD_CAT_ID": 41328, "ELEMENT_SET_NO": 999, "REV_AT_EPOCH": 7213, "BSTAR": 0, "MEAN_MOTION_DOT": -2.9e-07, "MEAN_MOTION_DDOT": 0}, "tle": {"line1": "1 41328U 16007A   25348.38819472 -.00000029  00000+0  00000+0 0  9996", "line2": "2 41328  55.4071  96.7915 0092232 243.6085 115.4276  2.00560678 72138"}}, "geometry": {"type": "Point", "coordinates": [65.1012846994159, -37.23288654273569]}}, {"type": "Feature", "properties": {"norad_id": 41330, "name": "COSMOS 2514 (751)", "group": "gnss", "lat": 48.50574989558318, "lon": -9.133182823218153, "alt_km": 19153.8000399806, "timestamp": "2025-12-16T19:34:24.509548+00:00", "meta": {"OBJECT_NAME": "COSMOS 2514 (751)", "OBJECT_ID": "2016-008A", "EPOCH": "2025-12-14T20:46:48.200160", "MEAN_MOTION": 2.13102693, "ECCENTRICITY": 0.00120161, "INCLINATION": 65.1326, "RA_OF_ASC_NODE": 319.3311, "ARG_OF_PERICENTER": 220.1002, "MEAN_ANOMALY": 139.8075, "EPHEMERIS_TYPE": 0, "CLASSIFICATION_TYPE": "U", "NORAD_CAT_ID": 41330, "ELEMENT_SET_NO": 999, "REV_AT_EPOCH": 7669, "BSTAR": 0, "MEAN_MOTION_DOT": -6.7e-07, "MEAN_MOTION_DDOT": 0}, "tle": {"line1": "1 41330U 16008A   25348.86583565 -.00000067  00000+0  00000+0 0  9996", "line2": "2 41330  65.1326 319.3311 0012016 220.1002 139.8075  2.13102693 76692"}}, "geometry": {"type": "Point", "coordinates": [-9.133182823218153, 48.50574989558318]}}, {"type": "Feature", "properties": {"norad_id": 41384, "name": "IRNSS-1F", "group": "gnss", "lat": -3.6828974784891253, "lon": 51.98762197492365, "alt_km": 35846.8193224173, "timestamp": "2025-12-16T19:34:24.509560+00:00", "meta": {"OBJECT_NAME": "IRNSS-1F", "OBJECT_ID": "2016-015A", "EPOCH": "2025-12-15T22:06:08.649216", "MEAN_MOTION": 1.00274198, "ECCENTRICITY": 0.00226047, "INCLINATION": 4.8888, "RA_OF_ASC_NODE": 101.2206, "ARG_OF_PERICENTER": 181.0814, "MEAN_ANOMALY": 166.4307, "EPHEMERIS_TYPE": 0, "CLASSIFICATION_TYPE": "U", "NORAD_CAT_ID": 41384, "ELEMENT_SET_NO": 999, "REV_AT_EPOCH": 3582, "BSTAR": 0, "MEAN_MOTION_DOT": 1.79e-06, "MEAN_MOTION_DDOT": 0}, "tle": {"line1": "1 41384U 16015A   25349.92093344  .00000179  00000+0  00000+0 0  9995", "line2": "2 41384   4.8888 101.2206 0022604 181.0814 166.4307  1.00274198 35824"}}, "geometry": {"type": "Point", "coordinates": [51.98762197492365, -3.6828974784891253]}}, {"type": "Feature", "properties": {"norad_id": 41434, "name": "BEIDOU-2 IGSO-6 (C13)", "group": "gnss", "lat": 55.58288668828078, "lon": 97.36171328409655, "alt_km": 36012.893273359514, "timestamp": "2025-12-16T19:34:24.509571+00:00", "meta": {"OBJECT_NAME": "BEIDOU-2 IGSO-6 (C13)", "OBJECT_ID": "2016-021A", "EPOCH": "2025-12-11T15:29:12.615360", "MEAN_MOTION": 1.00293077, "ECCENTRICITY": 0.00608616, "INCLINATION": 59.9644, "RA_OF_ASC_NODE": 39.9082, "ARG_OF_PERICENTER": 229.9753, "MEAN_ANOMALY": 135.9177, "EPHEMERIS_TYPE": 0, "CLASSIFICATION_TYPE": "U", "NORAD_CAT_ID": 41434, "ELEMENT_SET_NO": 999, "REV_AT_EPOCH": 3560, "BSTAR": 0, "MEAN_MOTION_DOT": -1.62e-06, "MEAN_MOTION_DDOT": 0}, "tle": {"line1": "1 41434U 16021A   25345.64528490 -.00000162  00000+0  00000+0 0  9991", "line2": "2 41434  59.9644  39.9082 0060861 229.9753 135.9177  1.00293077 35600"}}, "geometry": {"type": "Point", "coordinates": [97.36171328409655, 55.58288668828078]}}]}